[
    {
        "Altitude(m)": 556769.5490597724,
        "Argument of Periapsis(deg)": 0.019868973332140504,
        "Eccentricity": 0.0,
        "Inclination(deg)": 53.0,
        "Latitude(deg)": 39.198300087800654,
        "Longitude(deg)": 50.29451439182641,
        "Mean Anomaly(deg)": 52.092978602732785,
        "RAAN(deg)": 114.97043010558406,
        "Satellite Name": "Starlink Shell 1 507",
        "Satellite Number": 507,
        "Semi-Major Axis(m)": 6931778.249405717,
        "Time(s)": 570
    },
    {
        "Altitude(m)": 556852.8458969715,
        "Argument of Periapsis(deg)": 0.02021755181165174,
        "Eccentricity": 0.0,
        "Inclination(deg)": 53.0,
        "Latitude(deg)": 39.59396826239341,
        "Longitude(deg)": 50.882256958662566,
        "Mean Anomaly(deg)": 52.719809806289476,
        "RAAN(deg)": 114.96991133550657,
        "Satellite Name": "Starlink Shell 1 507",
        "Satellite Number": 507,
        "Semi-Major Axis(m)": 6931778.249405717,
        "Time(s)": 580
    },
    {
        "Altitude(m)": 556935.9654221879,
        "Argument of Periapsis(deg)": 0.020566130291162974,
        "Eccentricity": 0.0,
        "Inclination(deg)": 53.0,
        "Latitude(deg)": 39.986165600640426,
        "Longitude(deg)": 51.47715851089844,
        "Mean Anomaly(deg)": 53.3466410098462,
        "RAAN(deg)": 114.96939256542909,
        "Satellite Name": "Starlink Shell 1 507",
        "Satellite Number": 507,
        "Semi-Major Axis(m)": 6931778.249405717,
        "Time(s)": 590
    },
    {
        "Altitude(m)": 557018.8536693286,
        "Argument of Periapsis(deg)": 0.020914708770674213,
        "Eccentricity": 0.0,
        "Inclination(deg)": 53.0,
        "Latitude(deg)": 40.37480479405418,
        "Longitude(deg)": 52.07933689787237,
        "Mean Anomaly(deg)": 53.97347221340289,
        "RAAN(deg)": 114.96887379535164,
        "Satellite Name": "Starlink Shell 1 507",
        "Satellite Number": 507,
        "Semi-Major Axis(m)": 6931778.249405717,
        "Time(s)": 600
    },
    {
        "Altitude(m)": 557101.4570003481,
        "Argument of Periapsis(deg)": 0.021263287250185448,
        "Eccentricity": 0.0,
        "Inclination(deg)": 53.0,
        "Latitude(deg)": 40.75979669616755,
        "Longitude(deg)": 52.688908850586195,
        "Mean Anomaly(deg)": 54.60030341695962,
        "RAAN(deg)": 114.96835502527414,
        "Satellite Name": "Starlink Shell 1 507",
        "Satellite Number": 507,
        "Semi-Major Axis(m)": 6931778.249405717,
        "Time(s)": 610
    },
    {
        "Altitude(m)": 557183.7221324459,
        "Argument of Periapsis(deg)": 0.021611865729696686,
        "Eccentricity": 0.0,
        "Inclination(deg)": 53.0,
        "Latitude(deg)": 41.14105031140612,
        "Longitude(deg)": 53.30599023869024,
        "Mean Anomaly(deg)": 55.22713462051634,
        "RAAN(deg)": 114.96783625519669,
        "Satellite Name": "Starlink Shell 1 507",
        "Satellite Number": 507,
        "Semi-Major Axis(m)": 6931778.249405717,
        "Time(s)": 620
    },
    {
        "Altitude(m)": 557265.5961650435,
        "Argument of Periapsis(deg)": 0.02196044420920792,
        "Eccentricity": 0.0,
        "Inclination(deg)": 53.0,
        "Latitude(deg)": 41.51847278725104,
        "Longitude(deg)": 53.93069462980483,
        "Mean Anomaly(deg)": 55.85396582407306,
        "RAAN(deg)": 114.96731748511921,
        "Satellite Name": "Starlink Shell 1 507",
        "Satellite Number": 507,
        "Semi-Major Axis(m)": 6931778.249405717,
        "Time(s)": 630
    },
    {
        "Altitude(m)": 557347.0266065573,
        "Argument of Periapsis(deg)": 0.02230902268871916,
        "Eccentricity": 0.0,
        "Inclination(deg)": 53.0,
        "Latitude(deg)": 41.891969410017616,
        "Longitude(deg)": 54.56313435312134,
        "Mean Anomaly(deg)": 56.480797027629755,
        "RAAN(deg)": 114.96679871504173,
        "Satellite Name": "Starlink Shell 1 507",
        "Satellite Number": 507,
        "Semi-Major Axis(m)": 6931778.249405717,
        "Time(s)": 640
    },
    {
        "Altitude(m)": 557427.9614008991,
        "Argument of Periapsis(deg)": 0.022657601168230398,
        "Eccentricity": 0.0,
        "Inclination(deg)": 53.0,
        "Latitude(deg)": 42.26144360457845,
        "Longitude(deg)": 55.20341902392588,
        "Mean Anomaly(deg)": 57.107628231186474,
        "RAAN(deg)": 114.96627994496426,
        "Satellite Name": "Starlink Shell 1 507",
        "Satellite Number": 507,
        "Semi-Major Axis(m)": 6931778.249405717,
        "Time(s)": 650
    },
    {
        "Altitude(m)": 557508.3489537475,
        "Argument of Periapsis(deg)": 0.023006179647741636,
        "Eccentricity": 0.0,
        "Inclination(deg)": 53.0,
        "Latitude(deg)": 42.626796938386335,
        "Longitude(deg)": 55.851655731095754,
        "Mean Anomaly(deg)": 57.7344594347432,
        "RAAN(deg)": 114.96576117488681,
        "Satellite Name": "Starlink Shell 1 507",
        "Satellite Number": 507,
        "Semi-Major Axis(m)": 6931778.249405717,
        "Time(s)": 660
    },
    {
        "Altitude(m)": 557588.1381585462,
        "Argument of Periapsis(deg)": 0.023354758127252868,
        "Eccentricity": 0.0,
        "Inclination(deg)": 53.0,
        "Latitude(deg)": 42.98792913016115,
        "Longitude(deg)": 56.507949206287144,
        "Mean Anomaly(deg)": 58.36129063829992,
        "RAAN(deg)": 114.9652424048093,
        "Satellite Name": "Starlink Shell 1 507",
        "Satellite Number": 507,
        "Semi-Major Axis(m)": 6931778.249405717,
        "Time(s)": 670
    },
    {
        "Altitude(m)": 557667.278422208,
        "Argument of Periapsis(deg)": 0.023703336606764106,
        "Eccentricity": 0.0,
        "Inclination(deg)": 53.0,
        "Latitude(deg)": 43.34473806361713,
        "Longitude(deg)": 57.17240046170918,
        "Mean Anomaly(deg)": 58.98812184185664,
        "RAAN(deg)": 114.96472363473185,
        "Satellite Name": "Starlink Shell 1 507",
        "Satellite Number": 507,
        "Semi-Major Axis(m)": 6931778.249405717,
        "Time(s)": 680
    },
    {
        "Altitude(m)": 557745.7196905664,
        "Argument of Periapsis(deg)": 0.024051915086275345,
        "Eccentricity": 0.0,
        "Inclination(deg)": 53.0,
        "Latitude(deg)": 43.69711980662661,
        "Longitude(deg)": 57.845106922101785,
        "Mean Anomaly(deg)": 59.61495304541335,
        "RAAN(deg)": 114.96420486465438,
        "Satellite Name": "Starlink Shell 1 507",
        "Satellite Number": 507,
        "Semi-Major Axis(m)": 6931778.249405717,
        "Time(s)": 690
    },
    {
        "Altitude(m)": 557823.4124734869,
        "Argument of Periapsis(deg)": 0.024400493565786583,
        "Eccentricity": 0.0,
        "Inclination(deg)": 53.0,
        "Latitude(deg)": 44.044968636221384,
        "Longitude(deg)": 58.526162538017,
        "Mean Anomaly(deg)": 60.241784248970035,
        "RAAN(deg)": 114.9636860945769,
        "Satellite Name": "Starlink Shell 1 507",
        "Satellite Number": 507,
        "Semi-Major Axis(m)": 6931778.249405717,
        "Time(s)": 700
    },
    {
        "Altitude(m)": 557900.307869696,
        "Argument of Periapsis(deg)": 0.024749072045297815,
        "Eccentricity": 0.0,
        "Inclination(deg)": 53.0,
        "Latitude(deg)": 44.388177069843096,
        "Longitude(deg)": 59.21565636762569,
        "Mean Anomaly(deg)": 60.8686154525268,
        "RAAN(deg)": 114.96316732449942,
        "Satellite Name": "Starlink Shell 1 507",
        "Satellite Number": 507,
        "Semi-Major Axis(m)": 6931778.249405717,
        "Time(s)": 710
    },
    {
        "Altitude(m)": 557976.3575912646,
        "Argument of Periapsis(deg)": 0.025097650524809053,
        "Eccentricity": 0.0,
        "Inclination(deg)": 53.0,
        "Latitude(deg)": 44.726635903265866,
        "Longitude(deg)": 59.91367265303566,
        "Mean Anomaly(deg)": 61.495446656083494,
        "RAAN(deg)": 114.96264855442197,
        "Satellite Name": "Starlink Shell 1 507",
        "Satellite Number": 507,
        "Semi-Major Axis(m)": 6931778.249405717,
        "Time(s)": 720
    },
    {
        "Altitude(m)": 558051.5139877674,
        "Argument of Periapsis(deg)": 0.02544622900432029,
        "Eccentricity": 0.0,
        "Inclination(deg)": 53.0,
        "Latitude(deg)": 45.06023425561614,
        "Longitude(deg)": 60.62029087863531,
        "Mean Anomaly(deg)": 62.122277859640214,
        "RAAN(deg)": 114.96212978434447,
        "Satellite Name": "Starlink Shell 1 507",
        "Satellite Number": 507,
        "Semi-Major Axis(m)": 6931778.249405717,
        "Time(s)": 730
    },
    {
        "Altitude(m)": 558125.7300701098,
        "Argument of Periapsis(deg)": 0.02579480748383153,
        "Eccentricity": 0.0,
        "Inclination(deg)": 53.0,
        "Latitude(deg)": 45.388859621914875,
        "Longitude(deg)": 61.33558429914596,
        "Mean Anomaly(deg)": 62.74910906319691,
        "RAAN(deg)": 114.96161101426702,
        "Satellite Name": "Starlink Shell 1 507",
        "Satellite Number": 507,
        "Semi-Major Axis(m)": 6931778.249405717,
        "Time(s)": 740
    },
    {
        "Altitude(m)": 558198.9595339614,
        "Argument of Periapsis(deg)": 0.026143385963342765,
        "Eccentricity": 0.0,
        "Inclination(deg)": 53.0,
        "Latitude(deg)": 45.712397933573456,
        "Longitude(deg)": 62.05961996387737,
        "Mean Anomaly(deg)": 63.37594026675361,
        "RAAN(deg)": 114.96109224418954,
        "Satellite Name": "Starlink Shell 1 507",
        "Satellite Number": 507,
        "Semi-Major Axis(m)": 6931778.249405717,
        "Time(s)": 750
    }
]